[{"OBJECT_NAME":"STARLINK-2727","OBJECT_ID":"2021-044Q","EPOCH":"2026-03-10T00:00:02.999808","MEAN_MOTION":15.34639006,"ECCENTRICITY":0.00017275,"INCLINATION":53.0508,"RA_OF_ASC_NODE":111.1316,"ARG_OF_PERICENTER":77.2122,"MEAN_ANOMALY":188.8895,"EPHEMERIS_TYPE":0,"CLASSIFICATION_TYPE":"U","NORAD_CAT_ID":48652,"ELEMENT_SET_NO":999,"REV_AT_EPOCH":575,"BSTAR":0.016465627,"MEAN_MOTION_DOT":0.00599833,"MEAN_MOTION_DDOT":0},{"OBJECT_NAME":"GLOBAL-33","OBJECT_ID":"2025-267A","EPOCH":"2026-03-09T21:54:41.233536","MEAN_MOTION":15.34150159,"ECCENTRICITY":0.00080919,"INCLINATION":42.0191,"RA_OF_ASC_NODE":272.8342,"ARG_OF_PERICENTER":299.7504,"MEAN_ANOMALY":60.2529,"EPHEMERIS_TYPE":0,"CLASSIFICATION_TYPE":"U","NORAD_CAT_ID":66554,"ELEMENT_SET_NO":999,"REV_AT_EPOCH":1678,"BSTAR":0.00044586475,"MEAN_MOTION_DOT":0.00014847,"MEAN_MOTION_DDOT":0}]
